     2.100          NAVIGATION                              RINEX VERSION / TYPE
fic2rin                                 05/31/2012 00:08:16 PGM / RUN BY / DATE
                                                            END OF HEADER
17 12  5 30 12  0  0.0  .124930869788D-03 -.284217094304D-11  .000000000000D+00
     .380000000000D+02 -.436562500000D+02  .466448000860D-08  .257282163655D+01
    -.219792127609D-05  .736080214847D-02  .626966357231D-05  .515368206978D+04
     .302400000000D+06  .335276126862D-07 -.224231711259D+01 -.121071934700D-06
     .962822093976D+00  .258312500000D+03 -.229440128549D+01 -.811283793226D-08
    -.642883921553D-10  .100000000000D+01  .169000000000D+04  .000000000000D+00
     .240000000000D+01  .000000000000D+00 -.107102096081D-07  .380000000000D+02
     .295206000000D+06  .400000000000D+01
18 12  5 30 12  0  0.0  .198150984943D-03  .181898940355D-11  .000000000000D+00
     .180000000000D+02  .855000000000D+02  .535986611708D-08 -.223134213146D+01
     .434555113316D-05  .133433704032D-01  .651925802231D-05  .515369951820D+04
     .302400000000D+06  .206753611565D-06 -.174623876117D+00  .130385160446D-07
     .930014946216D+00  .234937500000D+03 -.217482388020D+01 -.839213528041D-08
     .329656588663D-09  .100000000000D+01  .169000000000D+04  .000000000000D+00
     .240000000000D+01  .000000000000D+00 -.107102096081D-07  .180000000000D+02
     .295206000000D+06  .400000000000D+01
19 12  5 30 12  0  0.0 -.270321033895D-03 -.375166564481D-11  .000000000000D+00
     .530000000000D+02 -.414687500000D+02  .479448542385D-08  .174061050277D+01
    -.212341547012D-05  .837880675681D-02  .681728124619D-05  .515357647705D+04
     .302400000000D+06 -.130385160446D-07 -.218928789169D+01  .165775418282D-06
     .960157682741D+00  .247531250000D+03  .168697609607D+00 -.828034490960D-08
    -.237509893240D-09  .100000000000D+01  .169000000000D+04  .000000000000D+00
     .240000000000D+01  .000000000000D+00 -.144354999065D-07  .530000000000D+02
     .295206000000D+06  .400000000000D+01
20 12  5 30 12  0  0.0  .636051408947D-04  .227373675443D-12  .000000000000D+00
     .660000000000D+02  .979375000000D+02  .545558438985D-08 -.186656962193D+01
     .512227416039D-05  .496404955629D-02  .736117362976D-05  .515369597244D+04
     .302400000000D+06  .132247805595D-06 -.228323954678D+00  .186264514923D-07
     .930462454319D+00  .221968750000D+03  .129031769388D+01 -.853178395448D-08
     .295012288446D-09  .100000000000D+01  .169000000000D+04  .000000000000D+00
     .240000000000D+01  .000000000000D+00 -.791624188423D-08  .660000000000D+02
     .295206000000D+06  .400000000000D+01
21 12  5 30 12  0  0.0 -.227003358305D-03 -.238742359215D-11  .000000000000D+00
     .950000000000D+02  .718750000000D+01  .512199906611D-08 -.115581127689D+01
     .638887286186D-06  .191779842135D-01  .994652509689D-05  .515361089706D+04
     .302400000000D+06  .391155481339D-06 -.122534286619D+01  .299885869026D-06
     .931099302058D+00  .167812500000D+03 -.224762793678D+01 -.830963184381D-08
    -.621454457501D-10  .100000000000D+01  .169000000000D+04  .000000000000D+00
     .240000000000D+01  .000000000000D+00 -.111758708954D-07  .950000000000D+02
     .295206000000D+06  .400000000000D+01
22 12  5 30 12  0  0.0  .144210644066D-03  .341060513165D-12  .000000000000D+00
     .600000000000D+02  .865312500000D+02  .545665586305D-08 -.304605288536D+01
     .436976552010D-05  .611727498472D-02  .664405524731D-05  .515367980576D+04
     .302400000000D+06  .108033418655D-06 -.171253027593D+00 -.614672899246D-07
     .927735503336D+00  .234593750000D+03 -.201378729755D+01 -.850035407387D-08
     .197508227010D-09  .100000000000D+01  .169000000000D+04  .000000000000D+00
     .340000000000D+01  .000000000000D+00 -.167638063431D-07  .600000000000D+02
     .295206000000D+06  .400000000000D+01
23 12  5 30 12  0  0.0  .200305134058D-03 -.375166564481D-11  .000000000000D+00
     .290000000000D+02 -.164687500000D+02  .495056335369D-08  .134436036153D+01
    -.601634383202D-06  .791939988267D-02  .414997339249D-05  .515362742996D+04
     .302400000000D+06  .577419996262D-07  .876791373720D+00  .113621354103D-06
     .960185080271D+00  .298031250000D+03 -.300737941123D+01 -.855571352267D-08
    -.398588031363D-09  .100000000000D+01  .169000000000D+04  .000000000000D+00
     .240000000000D+01  .000000000000D+00 -.200234353542D-07  .290000000000D+02
     .295206000000D+06  .400000000000D+01
24 12  5 30 12  0  0.0 -.833235681057D-04 -.295585778076D-10  .000000000000D+00
     .810000000000D+02 -.346875000000D+02  .519378777068D-08 -.124831307629D+01
    -.175647437572D-05  .894316367339D-02  .607222318649D-05  .515372775841D+04
     .302400000000D+06 -.163912773132D-06 -.235806429260D+01 -.149011611938D-07
     .940339914806D+00  .254625000000D+03 -.983596544504D+00 -.858607193007D-08
     .835749098019D-10  .100000000000D+01  .169000000000D+04  .000000000000D+00
     .240000000000D+01  .630000000000D+02 -.232830643654D-08  .810000000000D+02
     .295206000000D+06  .400000000000D+01
25 12  5 30 12  0  0.0  .346614979208D-04  .568434188608D-12  .000000000000D+00
     .600000000000D+01  .124687500000D+02  .426624913497D-08 -.168682606651D+01
     .692903995514D-06  .168881774880D-02  .785663723946D-05  .515370953751D+04
     .302400000000D+06 -.931322574615D-08  .294863804675D+01 -.521540641785D-07
     .968978734974D+00  .234125000000D+03  .683654886662D+00 -.798283251702D-08
     .313584490624D-09  .100000000000D+01  .169000000000D+04  .000000000000D+00
     .240000000000D+01  .000000000000D+00  .558793544769D-08  .600000000000D+01
     .295206000000D+06  .400000000000D+01
26 12  5 30 12  0  0.0 -.387891195714D-03  .989075488178D-11  .000000000000D+00
     .920000000000D+02 -.233750000000D+02  .447518640948D-08  .119599624090D+01
    -.141561031342D-05  .209153151372D-01  .505521893501D-05  .515366002083D+04
     .302400000000D+06 -.366941094398D-06  .949605091412D+00 -.521540641785D-07
     .983263401485D+00  .301968750000D+03  .119743727519D+01 -.843677999718D-08
    -.371444043564D-09  .100000000000D+01  .169000000000D+04  .000000000000D+00
     .340000000000D+01  .000000000000D+00 -.605359673500D-08  .920000000000D+02
     .295206000000D+06  .400000000000D+01
27 12  5 30 12  0  0.0  .393346417695D-03  .397903932026D-11  .000000000000D+00
     .380000000000D+02 -.629062500000D+02  .391123434718D-08  .207905008896D+01
    -.306405127048D-05  .216963527491D-01  .862032175064D-05  .515372913551D+04
     .302400000000D+06  .301748514175D-06  .187381640461D+01  .670552253723D-07
     .981855601770D+00  .216781250000D+03 -.107935339369D+01 -.751317009655D-08
    -.380730144653D-09  .100000000000D+01  .169000000000D+04  .000000000000D+00
     .240000000000D+01  .000000000000D+00 -.419095158577D-08  .380000000000D+02
     .295206000000D+06  .400000000000D+01
28 12  5 30 12  0  0.0  .149478204548D-03  .397903932026D-11  .000000000000D+00
     .100000000000D+02  .166562500000D+02  .399338062605D-08 -.311859935864D+01
     .845640897751D-06  .178611649899D-01  .800192356110D-05  .515362820053D+04
     .302400000000D+06  .195577740669D-06  .300760088679D+01 -.143423676491D-06
     .979336796234D+00  .231375000000D+03 -.182807797828D+01 -.756602944121D-08
     .433232331580D-09  .100000000000D+01  .169000000000D+04  .000000000000D+00
     .240000000000D+01  .000000000000D+00 -.107102096081D-07  .100000000000D+02
     .295206000000D+06  .400000000000D+01
30 12  5 30 12  0  0.0 -.208478420973D-03 -.225099938689D-10  .000000000000D+00
     .790000000000D+02  .170312500000D+02  .444197074020D-08  .245847862091D+01
     .867992639542D-06  .110899619758D-01  .783428549767D-05  .515365836716D+04
     .302400000000D+06  .203028321266D-06  .285775270892D+01  .540167093277D-07
     .960190229743D+00  .227062500000D+03  .156535379170D+01 -.791711549392D-08
     .361443627006D-09  .100000000000D+01  .169000000000D+04  .000000000000D+00
     .685000000000D+01  .000000000000D+00 -.419095158577D-08  .790000000000D+02
     .295206000000D+06  .400000000000D+01
31 12  5 30 12  0  0.0  .247650314122D-03  .409272615798D-11  .000000000000D+00
     .840000000000D+02 -.338750000000D+02  .394230707006D-08 -.252243870718D+00
    -.183284282684D-05  .776341906749D-02  .965222716331D-05  .515365816689D+04
     .302400000000D+06 -.633299350739D-07  .192935506838D+01 -.143423676491D-06
     .980742732191D+00  .207531250000D+03 -.860365824616D+00 -.790140055362D-08
    -.154292141173D-09  .100000000000D+01  .169000000000D+04  .000000000000D+00
     .240000000000D+01  .000000000000D+00 -.130385160446D-07  .840000000000D+02
     .295206000000D+06  .400000000000D+01
32 12  5 30 12  0  0.0 -.449152663350D-03 -.397903932026D-11  .000000000000D+00
     .580000000000D+02  .808750000000D+02  .514664294977D-08  .327670067516D+00
     .416301190853D-05  .118190156063D-01  .645965337753D-05  .515366968536D+04
     .302400000000D+06  .104308128357D-06 -.960005362248D-01 -.182539224625D-06
     .951980166709D+00  .253593750000D+03 -.573763432716D+00 -.862321633443D-08
     .260010830495D-09  .100000000000D+01  .169000000000D+04  .000000000000D+00
     .240000000000D+01  .000000000000D+00 -.279396772385D-08  .580000000000D+02
     .295206000000D+06  .400000000000D+01
 8 12  5 30 11 59 44.0  .131037086248D-05  .113686837722D-12  .000000000000D+00
     .120000000000D+02 -.475000000000D+02  .343371445656D-08 -.867375869115D+00
    -.261142849922D-05  .122784536798D-01  .108163803816D-04  .515368349266D+04
     .302384000000D+06  .245869159698D-06  .200984567544D+01 -.171363353729D-06
     .997891948834D+00  .189843750000D+03 -.296908733886D+01 -.758710174753D-08
    -.103575742917D-09  .100000000000D+01  .169000000000D+04  .000000000000D+00
     .240000000000D+01  .000000000000D+00 -.372529029846D-08  .120000000000D+02
     .297486000000D+06  .400000000000D+01
